OBJECT_NAME,OBJECT_ID,EPOCH,MEAN_MOTION,ECCENTRICITY,INCLINATION,RA_OF_ASC_NODE,ARG_OF_PERICENTER,MEAN_ANOMALY,EPHEMERIS_TYPE,CLASSIFICATION_TYPE,NORAD_CAT_ID,ELEMENT_SET_NO,REV_AT_EPOCH,BSTAR,MEAN_MOTION_DOT,MEAN_MOTION_DDOT
ZHONGXING-2E,2021-071A,2026-07-12T02:52:21.431136,1.00271658,.00011421,0.0616,236.1809,270.6959,284.2962,0,U,49062,999,1828,0,-.288E-5,0
TJS-7,2021-077A,2026-07-12T06:11:43.189728,1.00269552,.0003043,0.2942,264.1148,108.3656,271.1004,0,U,49115,999,980,0,-.121E-5,0
CHINASAT 9B,2021-080A,2026-07-12T07:09:00.199008,1.00269831,.00021213,0.0258,86.3657,61.0486,351.4438,0,U,49125,999,1790,0,-.31E-5,0
SHIJIAN-21 (SJ-21),2021-094A,2026-07-12T06:23:26.959200,1.00279317,.00517147,5.1698,61.0240,168.9249,283.8959,0,U,49330,999,561,0,-.35E-5,0
SES-17,2021-095A,2026-07-12T04:38:12.655392,1.00268680,.00007599,0.0225,44.4816,74.2568,173.8002,0,U,49332,999,1810,0,-.27E-5,0
SYRACUSE 4A,2021-095B,2026-07-12T06:52:54.241824,1.00264830,.00014396,0.0247,46.8957,49.6297,342.3916,0,U,49333,999,1819,0,0,0
QZS-1R (MICHIBIKI-1R),2021-096A,2026-07-10T14:11:14.485632,1.00246773,.07548364,37.5070,79.2376,272.1562,282.0570,0,U,49336,999,1724,0,-.288E-5,0
ZHONGXING-1D,2021-114A,2026-07-12T07:17:06.921312,1.00269866,.00005264,0.0483,234.9624,29.6194,265.0871,0,U,49505,999,1707,0,-.334E-5,0
STPSAT-6,2021-118A,2026-07-12T04:59:38.386752,1.00269803,.00009832,0.3828,85.1267,237.8447,290.2720,0,U,49817,999,1682,0,-.43E-6,0
EXPRESS AMU-7,2021-123A,2026-07-11T22:47:52.974816,1.00271991,.00004545,0.0245,291.7279,272.4891,212.6010,0,U,50001,999,1678,0,-.239E-5,0
EXPRESS AMU-3,2021-123B,2026-07-11T21:49:11.270208,1.00269822,.00001024,0.0158,1.2821,310.3586,48.3584,0,U,50002,999,728,0,0,0
TIANLIAN 2-02,2021-124A,2026-07-12T08:36:25.129152,1.00270358,.00015146,0.8630,85.7470,163.8574,340.7207,0,U,50005,999,1687,0,-.14E-6,0
TURKSAT 5B,2021-126A,2026-07-12T05:09:24.664320,1.00270391,.00026115,0.0700,338.2733,12.5137,58.6734,0,U,50212,999,1654,0,.149E-5,0
INMARSAT 6-F1,2021-128A,2026-07-12T05:18:38.697408,1.00270883,.00002105,0.0144,329.2840,275.1219,209.1187,0,U,50319,999,1651,0,-.169E-5,0
SHIYAN-12 01 (SY-12 01),2021-129A,2026-07-11T17:00:24.660000,1.00049347,.0002599,3.7350,79.5804,284.7123,220.4704,0,U,50321,999,1674,0,.152E-5,0
SHIYAN-12 02 (SY-12 02),2021-129B,2026-07-11T18:24:20.998944,1.00478973,.0003034,3.7342,79.5798,70.3598,163.6304,0,U,50322,999,1674,0,-.356E-5,0
TJS-9,2021-135A,2026-07-12T08:35:38.446368,1.00273604,.0002305,0.0407,110.3791,317.4395,128.5713,0,U,50574,999,1668,0,-.297E-5,0
GOES 18,2022-021A,2026-07-12T05:52:38.821728,1.00272739,.0000615,0.0163,129.9775,65.2398,46.0856,0,U,51850,999,684,0,.99E-6,0
ZHONGXING-6D,2022-038A,2026-07-11T20:20:45.782304,1.00273838,.00004921,0.0334,245.3356,273.9837,200.6765,0,U,52255,999,1567,0,-.349E-5,0
NILESAT 301,2022-061A,2026-07-12T07:32:38.817024,1.00269163,.00035386,0.0469,348.5213,89.8444,318.0439,0,U,52817,999,1498,0,-.56E-6,0
CMS-02 (GSAT-24),2022-067A,2026-07-12T03:29:38.637312,1.00271804,.00006699,0.0157,96.7321,249.7908,78.9265,0,U,52903,999,1485,0,-.162E-5,0
MEASAT 3D,2022-067B,2026-07-12T07:06:00.486144,1.00272222,.00006357,0.0508,304.4089,70.3382,113.4489,0,U,52904,999,1490,0,-.24E-5,0
SES-22,2022-071A,2026-07-12T05:52:38.821728,1.00270228,.0000783,0.0142,341.0651,122.6666,135.5495,0,U,52933,999,777,0,.107E-5,0
WFOV (USA 332),2022-073A,2026-07-12T01:50:38.563008,1.00268826,.00015445,3.7719,78.2133,214.5354,144.1889,0,U,52940,999,1461,0,-.363E-5,0
TIANLIAN 2-03,2022-078A,2026-07-12T05:00:25.525728,1.00273276,.00009056,0.7331,77.4504,2.4110,295.9722,0,U,53100,999,1479,0,.74E-6,0
SBIRS GEO-6 (USA 336),2022-092A,2026-07-12T04:50:38.704704,1.00270340,.00016371,3.2168,317.8927,154.1043,29.7655,0,U,53355,999,1448,0,-.285E-5,0
EUTELSAT KONNECT VHTS,2022-110A,2026-07-12T04:58:10.740864,1.00272072,.00027544,0.0565,99.6066,348.4736,279.2657,0,U,53765,999,708,0,.19E-6,0
ZHONGXING-1E,2022-112A,2026-07-12T01:55:16.165344,1.00272873,.00009329,0.0616,234.2589,47.1904,118.7272,0,U,53813,999,1409,0,-.146E-5,0
SES-20,2022-123A,2026-07-12T07:21:19.509984,1.00269240,.00017198,0.0163,63.8520,29.5449,204.0328,0,U,53960,999,1378,0,-.99E-6,0
SES-21,2022-123B,2026-07-12T00:54:43.879104,1.00270039,.00012144,0.0396,34.2820,74.3511,64.0628,0,U,53961,999,746,0,0,0
GALAXY 33 (G-33),2022-128A,2026-07-12T08:24:45.319392,1.00271140,.00017526,0.0100,8.6415,111.2217,163.5667,0,U,54026,999,1399,0,.81E-6,0
