ZHONGXING-2E            
1 49062U 21071A   26193.11969249 -.00000288  00000+0  00000+0 0  9991
2 49062   0.0616 236.1809 0001142 270.6959 284.2962  1.00271658 18283
TJS-7                   
1 49115U 21077A   26193.25813877 -.00000121  00000+0  00000+0 0  9992
2 49115   0.2942 264.1148 0003043 108.3656 271.1004  1.00269552  9806
CHINASAT 9B             
1 49125U 21080A   26193.29791897 -.00000310  00000+0  00000+0 0  9998
2 49125   0.0258  86.3657 0002121  61.0486 351.4438  1.00269831 17909
SHIJIAN-21 (SJ-21)      
1 49330U 21094A   26193.26628425 -.00000350  00000+0  00000+0 0  9998
2 49330   5.1698  61.0240 0051714 168.9249 283.8959  1.00279317  5616
SES-17                  
1 49332U 21095A   26193.19320203 -.00000270  00000+0  00000+0 0  9997
2 49332   0.0225  44.4816 0000759  74.2568 173.8002  1.00268680 18104
SYRACUSE 4A             
1 49333U 21095B   26193.28673891  .00000000  00000+0  00000+0 0  9992
2 49333   0.0247  46.8957 0001439  49.6297 342.3916  1.00264830 18191
QZS-1R (MICHIBIKI-1R)   
1 49336U 21096A   26191.59113988 -.00000288  00000+0  00000+0 0  9993
2 49336  37.5070  79.2376 0754836 272.1562 282.0570  1.00246773 17249
ZHONGXING-1D            
1 49505U 21114A   26193.30355233 -.00000334  00000+0  00000+0 0  9996
2 49505   0.0483 234.9624 0000526  29.6194 265.0871  1.00269866 17076
STPSAT-6                
1 49817U 21118A   26193.20808318 -.00000043  00000+0  00000+0 0  9999
2 49817   0.3828  85.1267 0000983 237.8447 290.2720  1.00269803 16824
EXPRESS AMU-7           
1 50001U 21123A   26192.94991869 -.00000239  00000+0  00000+0 0  9993
2 50001   0.0245 291.7279 0000454 272.4891 212.6010  1.00271991 16786
EXPRESS AMU-3           
1 50002U 21123B   26192.90915822  .00000000  00000+0  00000+0 0  9990
2 50002   0.0158   1.2821 0000102 310.3586  48.3584  1.00269822  7285
TIANLIAN 2-02           
1 50005U 21124A   26193.35862418 -.00000014  00000+0  00000+0 0  9992
2 50005   0.8630  85.7470 0001514 163.8574 340.7207  1.00270358 16876
TURKSAT 5B              
1 50212U 21126A   26193.21486880  .00000149  00000+0  00000+0 0  9992
2 50212   0.0700 338.2733 0002611  12.5137  58.6734  1.00270391 16549
INMARSAT 6-F1           
1 50319U 21128A   26193.22128122 -.00000169  00000+0  00000+0 0  9998
2 50319   0.0144 329.2840 0000210 275.1219 209.1187  1.00270883 16517
SHIYAN-12 01 (SY-12 01) 
1 50321U 21129A   26192.70861875  .00000152  00000+0  00000+0 0  9994
2 50321   3.7350  79.5804 0002599 284.7123 220.4704  1.00049347 16741
SHIYAN-12 02 (SY-12 02) 
1 50322U 21129B   26192.76690971 -.00000356  00000+0  00000+0 0  9995
2 50322   3.7342  79.5798 0003034  70.3598 163.6304  1.00478973 16740
TJS-9                   
1 50574U 21135A   26193.35808387 -.00000297  00000+0  00000+0 0  9993
2 50574   0.0407 110.3791 0002305 317.4395 128.5713  1.00273604 16689
GOES 18                 
1 51850U 22021A   26193.24489377  .00000099  00000+0  00000+0 0  9997
2 51850   0.0163 129.9775 0000615  65.2398  46.0856  1.00272739  6844
ZHONGXING-6D            
1 52255U 22038A   26192.84775211 -.00000349  00000+0  00000+0 0  9994
2 52255   0.0334 245.3356 0000492 273.9837 200.6765  1.00273838 15670
NILESAT 301             
1 52817U 22061A   26193.31433816 -.00000056  00000+0  00000+0 0  9994
2 52817   0.0469 348.5213 0003538  89.8444 318.0439  1.00269163 14984
CMS-02 (GSAT-24)        
1 52903U 22067A   26193.14558608 -.00000162  00000+0  00000+0 0  9992
2 52903   0.0157  96.7321 0000669 249.7908  78.9265  1.00271804 14850
MEASAT 3D               
1 52904U 22067B   26193.29583896 -.00000240  00000+0  00000+0 0  9993
2 52904   0.0508 304.4089 0000635  70.3382 113.4489  1.00272222 14902
SES-22                  
1 52933U 22071A   26193.24489377  .00000107  00000+0  00000+0 0  9995
2 52933   0.0142 341.0651 0000783 122.6666 135.5495  1.00270228  7773
WFOV (USA 332)          
1 52940U 22073A   26193.07683522 -.00000363  00000+0  00000+0 0  9999
2 52940   3.7719  78.2133 0001544 214.5354 144.1889  1.00268826 14611
TIANLIAN 2-03           
1 53100U 22078A   26193.20862877  .00000074  00000+0  00000+0 0  9998
2 53100   0.7331  77.4504 0000905   2.4110 295.9722  1.00273276 14799
SBIRS GEO-6 (USA 336)   
1 53355U 22092A   26193.20183686 -.00000285  00000+0  00000+0 0  9995
2 53355   3.2168 317.8927 0001637 154.1043  29.7655  1.00270340 14483
EUTELSAT KONNECT VHTS   
1 53765U 22110A   26193.20706876  .00000019  00000+0  00000+0 0  9997
2 53765   0.0565  99.6066 0002754 348.4736 279.2657  1.00272072  7087
ZHONGXING-1E            
1 53813U 22112A   26193.08004821 -.00000146  00000+0  00000+0 0  9992
2 53813   0.0616 234.2589 0000932  47.1904 118.7272  1.00272873 14099
SES-20                  
1 53960U 22123A   26193.30647581 -.00000099  00000+0  00000+0 0  9995
2 53960   0.0163  63.8520 0001719  29.5449 204.0328  1.00269240 13782
SES-21                  
1 53961U 22123B   26193.03800786  .00000000  00000+0  00000+0 0  9995
2 53961   0.0396  34.2820 0001214  74.3511  64.0628  1.00270039  7467
GALAXY 33 (G-33)        
1 54026U 22128A   26193.35052453  .00000081  00000+0  00000+0 0  9997
2 54026   0.0100   8.6415 0001752 111.2217 163.5667  1.00271140 13996
